AQUA                    
1 27424U 02022A   26185.66240198  .00001188  00000+0  24574-3 0  9995
2 27424  98.4287 155.2954 0000681  88.0238  84.8708 14.62187266285827
ARIRANG-2 (KOMPSAT-2)   
1 29268U 06031A   26185.64745553  .00000387  00000+0  81035-4 0  9996
2 29268  97.8308   9.2488 0015140  23.5000  49.8393 14.64671073 64034
ARIRANG-3 (KOMPSAT-3)   
1 38338U 12025B   26185.61928147  .00000635  00000+0  13520-3 0  9992
2 38338  98.1179 142.7792 0006704  65.9508 294.2395 14.62222918753897
ARIRANG-5 (KOMPSAT-5)   
1 39227U 13042A   26185.59128630  .00001818  00000+0  13404-3 0  9991
2 39227  97.6207  12.0458 0005274  80.9007 279.2816 15.04550096706472
ALOS-2                  
1 39766U 14029A   26184.77685350  .00001480  00000+0  20504-3 0  9995
2 39766  97.9231 281.7034 0001643  89.0013 271.1387 14.79475407654039
ASNARO                  
1 40298U 14070A   26185.28052601  .00008658  00000+0  40831-3 0  9996
2 40298  97.3446 260.9344 0006648 117.4549 242.7363 15.19693567646602
ALSAT-1B                
1 41785U 16059C   26185.57077462  .00000187  00000+0  36977-4 0  9997
2 41785  97.7746 193.5843 0009517 161.3515 198.8043 14.72287226523132
ARKTIKA-M 1             
1 47719U 21016A   26180.95192977 -.00000281  00000+0  00000+0 0  9994
2 47719  63.2520  55.7907 7292817 269.9910  14.5481  2.00617895 39040
ARKTIKA-M 2             
1 58584U 23198A   26180.72239164  .00000148  00000+0  00000+0 0  9995
2 58584  63.2199 152.9641 6905877 267.3845  18.7575  2.00610643 18573
ALOS-4 (DAICHI-4)       
1 60182U 24123A   26183.84934411  .00001648  00000+0  22752-3 0  9992
2 60182  97.9220 280.8007 0001610  97.4056 262.7339 14.79475621108199
